FALCONSAT-6             
1 43815U 18099BK  26068.72544389  .00005029  00000+0  19477-3 0  9998
2 43815  97.3865 145.8165 0014370 297.0944 181.0714 15.26532865398556
STARLINK-31279          
1 59086U 24041N   26068.40296014 -.00000476  00000+0 -77806-5 0  9998
2 59086  43.0036 312.6672 0001274 267.9500  92.1205 15.27575078114277
